start=new Date('2022-08-20T00:00:00.000Z').valueOf();
sats=[{"TLE_LINE2":"2 46788  53.0546 359.0651 0001376  88.2942 271.8205 15.06396363101444","MEAN_ELEMENT_THEORY":"SGP4","TIME_SYSTEM":"UTC","RCS_SIZE":"LARGE","NORAD_CAT_ID":"46788","BSTAR":"-0.00003922900000","TLE_LINE1":"1 46788U 20074BB  22231.57931667 -.00000866  00000-0 -39229-4 0  9991","COUNTRY_CODE":"US","ECCENTRICITY":"0.00013760","OBJECT_TYPE":"PAYLOAD","PERIOD":"95.592","APOAPSIS":"548.178","DECAY_DATE":null,"INCLINATION":"53.0546","EPHEMERIS_TYPE":"0","RA_OF_ASC_NODE":"359.0651","OBJECT_ID":"2020-074BB","LAUNCH_DATE":"2020-10-24","REV_AT_EPOCH":"10144","OBJECT_NAME":"STARLINK-1929","GP_ID":"210546934","MEAN_ANOMALY":"271.8205","ELEMENT_SET_NO":"999","REF_FRAME":"TEME","MEAN_MOTION":"15.06396363","SITE":"AFETR","FILE":"3540705","EPOCH":"2022-08-19T13:54:12.960288","ARG_OF_PERICENTER":"88.2942","PERIAPSIS":"546.272","MEAN_MOTION_DDOT":"0.0000000000000","SEMIMAJOR_AXIS":"6925.360","CLASSIFICATION_TYPE":"U","CENTER_NAME":"EARTH","MEAN_MOTION_DOT":"-0.00000866"},{"BSTAR":"0.00010717000000","TLE_LINE1":"1 46789U 20074BC  22231.27064484  .00001315  00000-0  10717-3 0  9991","RCS_SIZE":"LARGE","NORAD_CAT_ID":"46789","TIME_SYSTEM":"UTC","MEAN_ELEMENT_THEORY":"SGP4","TLE_LINE2":"2 46789  53.0559  30.6147 0001597  70.2933 289.8228 15.06399710100977","ECCENTRICITY":"0.00015970","COUNTRY_CODE":"US","DECAY_DATE":null,"APOAPSIS":"548.320","PERIOD":"95.592","OBJECT_TYPE":"PAYLOAD","OBJECT_ID":"2020-074BC","EPHEMERIS_TYPE":"0","RA_OF_ASC_NODE":"30.6147","INCLINATION":"53.0559","MEAN_MOTION":"15.06399710","ELEMENT_SET_NO":"999","REF_FRAME":"TEME","MEAN_ANOMALY":"289.8228","GP_ID":"210516127","REV_AT_EPOCH":"10097","OBJECT_NAME":"STARLINK-1930","LAUNCH_DATE":"2020-10-24","PERIAPSIS":"546.108","ARG_OF_PERICENTER":"70.2933","EPOCH":"2022-08-19T06:29:43.714176","FILE":"3540406","SITE":"AFETR","SEMIMAJOR_AXIS":"6925.349","MEAN_MOTION_DDOT":"0.0000000000000","MEAN_MOTION_DOT":"0.00001315","CENTER_NAME":"EARTH","CLASSIFICATION_TYPE":"U"},{"OBJECT_TYPE":"PAYLOAD","PERIOD":"95.592","DECAY_DATE":null,"APOAPSIS":"548.114","INCLINATION":"53.0552","EPHEMERIS_TYPE":"0","RA_OF_ASC_NODE":"29.1403","OBJECT_ID":"2020-074BD","TIME_SYSTEM":"UTC","TLE_LINE2":"2 46790  53.0552  29.1403 0001338  93.7120 266.4022 15.06408635101017","MEAN_ELEMENT_THEORY":"SGP4","RCS_SIZE":"LARGE","NORAD_CAT_ID":"46790","TLE_LINE1":"1 46790U 20074BD  22231.56549430  .00001738  00000-0  13553-3 0  9994","BSTAR":"0.00013553000000","ECCENTRICITY":"0.00013380","COUNTRY_CODE":"US","MEAN_MOTION_DDOT":"0.0000000000000","SEMIMAJOR_AXIS":"6925.322","CENTER_NAME":"EARTH","CLASSIFICATION_TYPE":"U","MEAN_MOTION_DOT":"0.00001738","OBJECT_NAME":"STARLINK-1931","REV_AT_EPOCH":"10101","LAUNCH_DATE":"2020-10-24","MEAN_ANOMALY":"266.4022","GP_ID":"210545433","ELEMENT_SET_NO":"999","REF_FRAME":"TEME","MEAN_MOTION":"15.06408635","SITE":"AFETR","FILE":"3540705","EPOCH":"2022-08-19T13:34:18.707520","ARG_OF_PERICENTER":"93.7120","PERIAPSIS":"546.260"},{"CLASSIFICATION_TYPE":"U","CENTER_NAME":"EARTH","MEAN_MOTION_DOT":"0.00001776","MEAN_MOTION_DDOT":"0.0000000000000","SEMIMAJOR_AXIS":"6925.348","FILE":"3540705","SITE":"AFETR","EPOCH":"2022-08-19T20:17:42.673056","ARG_OF_PERICENTER":"80.2850","PERIAPSIS":"546.265","LAUNCH_DATE":"2020-10-24","REV_AT_EPOCH":"10106","OBJECT_NAME":"STARLINK-1933","MEAN_ANOMALY":"279.8294","GP_ID":"210546183","ELEMENT_SET_NO":"999","REF_FRAME":"TEME","MEAN_MOTION":"15.06400264","INCLINATION":"53.0570","EPHEMERIS_TYPE":"0","RA_OF_ASC_NODE":"27.8722","OBJECT_ID":"2020-074BE","OBJECT_TYPE":"PAYLOAD","PERIOD":"95.592","APOAPSIS":"548.160","DECAY_DATE":null,"COUNTRY_CODE":"US","ECCENTRICITY":"0.00013680","TLE_LINE2":"2 46791  53.0570  27.8722 0001368  80.2850 279.8294 15.06400264101065","MEAN_ELEMENT_THEORY":"SGP4","TIME_SYSTEM":"UTC","RCS_SIZE":"LARGE","NORAD_CAT_ID":"46791","BSTAR":"0.00013812000000","TLE_LINE1":"1 46791U 20074BE  22231.84563279  .00001776  00000-0  13812-3 0  9993"},{"MEAN_ELEMENT_THEORY":"SGP4","TLE_LINE2":"2 46792  53.0582  21.0167 0001469  76.6415 283.4737 15.06399623101098","TIME_SYSTEM":"UTC","TLE_LINE1":"1 46792U 20074BF  22231.14254133  .00000351  00000-0  42459-4 0  9991","BSTAR":"0.00004245900000","NORAD_CAT_ID":"46792","RCS_SIZE":"LARGE","COUNTRY_CODE":"US","ECCENTRICITY":"0.00014690","OBJECT_TYPE":"PAYLOAD","APOAPSIS":"548.232","DECAY_DATE":null,"PERIOD":"95.592","INCLINATION":"53.0582","OBJECT_ID":"2020-074BF","EPHEMERIS_TYPE":"0","RA_OF_ASC_NODE":"21.0167","GP_ID":"210514880","MEAN_ANOMALY":"283.4737","LAUNCH_DATE":"2020-10-24","REV_AT_EPOCH":"10109","OBJECT_NAME":"STARLINK-1934","MEAN_MOTION":"15.06399623","ELEMENT_SET_NO":"999","REF_FRAME":"TEME","EPOCH":"2022-08-19T03:25:15.570912","FILE":"3540406","SITE":"AFETR","PERIAPSIS":"546.197","ARG_OF_PERICENTER":"76.6415","SEMIMAJOR_AXIS":"6925.350","MEAN_MOTION_DDOT":"0.0000000000000","CLASSIFICATION_TYPE":"U","CENTER_NAME":"EARTH","MEAN_MOTION_DOT":"0.00000351"},{"OBJECT_TYPE":"PAYLOAD","PERIOD":"95.592","APOAPSIS":"548.161","DECAY_DATE":null,"INCLINATION":"53.0558","EPHEMERIS_TYPE":"0","RA_OF_ASC_NODE":"29.1148","OBJECT_ID":"2020-074BG","TLE_LINE2":"2 46793  53.0558  29.1148 0001366  89.0467 271.0679 15.06399594101018","MEAN_ELEMENT_THEORY":"SGP4","TIME_SYSTEM":"UTC","RCS_SIZE":"LARGE","NORAD_CAT_ID":"46793","BSTAR":"0.00004745600000","TLE_LINE1":"1 46793U 20074BG  22231.56918476  .00000425  00000-0  47456-4 0  9999","COUNTRY_CODE":"US","ECCENTRICITY":"0.00013660","MEAN_MOTION_DDOT":"0.0000000000000","SEMIMAJOR_AXIS":"6925.350","CLASSIFICATION_TYPE":"U","CENTER_NAME":"EARTH","MEAN_MOTION_DOT":"0.00000425","LAUNCH_DATE":"2020-10-24","REV_AT_EPOCH":"10101","OBJECT_NAME":"STARLINK-1941","MEAN_ANOMALY":"271.0679","GP_ID":"210546686","ELEMENT_SET_NO":"999","REF_FRAME":"TEME","MEAN_MOTION":"15.06399594","SITE":"AFETR","FILE":"3540705","EPOCH":"2022-08-19T13:39:37.563264","ARG_OF_PERICENTER":"89.0467","PERIAPSIS":"546.269"},{"MEAN_ANOMALY":"282.8261","GP_ID":"210522400","OBJECT_NAME":"STARLINK-1942","REV_AT_EPOCH":"10063","LAUNCH_DATE":"2020-10-24","MEAN_MOTION":"15.06404301","ELEMENT_SET_NO":"999","REF_FRAME":"TEME","EPOCH":"2022-08-19T04:16:59.971296","SITE":"AFETR","FILE":"3540549","PERIAPSIS":"545.984","ARG_OF_PERICENTER":"77.2924","SEMIMAJOR_AXIS":"6925.335","MEAN_MOTION_DDOT":"0.0000000000000","CENTER_NAME":"EARTH","CLASSIFICATION_TYPE":"U","MEAN_MOTION_DOT":"0.00001668","TIME_SYSTEM":"UTC","MEAN_ELEMENT_THEORY":"SGP4","TLE_LINE2":"2 46794  53.0543  30.8739 0001757  77.2924 282.8261 15.06404301100636","TLE_LINE1":"1 46794U 20074BH  22231.17847189  .00001668  00000-0  13081-3 0  9995","BSTAR":"0.00013081000000","RCS_SIZE":"LARGE","NORAD_CAT_ID":"46794","ECCENTRICITY":"0.00017570","COUNTRY_CODE":"US","OBJECT_TYPE":"PAYLOAD","DECAY_DATE":null,"APOAPSIS":"548.417","PERIOD":"95.592","INCLINATION":"53.0543","OBJECT_ID":"2020-074BH","EPHEMERIS_TYPE":"0","RA_OF_ASC_NODE":"30.8739"},{"REF_FRAME":"TEME","ELEMENT_SET_NO":"999","MEAN_MOTION":"15.06416209","LAUNCH_DATE":"2020-10-24","REV_AT_EPOCH":"10109","OBJECT_NAME":"STARLINK-1944","GP_ID":"210515130","MEAN_ANOMALY":"276.4639","ARG_OF_PERICENTER":"83.6457","PERIAPSIS":"546.514","SITE":"AFETR","FILE":"3540406","EPOCH":"2022-08-19T03:41:10.214880","MEAN_MOTION_DDOT":"0.0000000000000","SEMIMAJOR_AXIS":"6925.299","MEAN_MOTION_DOT":"0.00006882","CLASSIFICATION_TYPE":"U","CENTER_NAME":"EARTH","RCS_SIZE":"LARGE","NORAD_CAT_ID":"46796","TLE_LINE1":"1 46796U 20074BK  22231.15359045  .00006882  00000-0  48022-3 0  9990","BSTAR":"0.00048022000000","TLE_LINE2":"2 46796  53.0532  20.9834 0000938  83.6457 276.4639 15.06416209101093","MEAN_ELEMENT_THEORY":"SGP4","TIME_SYSTEM":"UTC","COUNTRY_CODE":"US","ECCENTRICITY":"0.00009380","PERIOD":"95.591","APOAPSIS":"547.813","DECAY_DATE":null,"OBJECT_TYPE":"PAYLOAD","RA_OF_ASC_NODE":"20.9834","EPHEMERIS_TYPE":"0","OBJECT_ID":"2020-074BK","INCLINATION":"53.0532"},{"APOAPSIS":"548.302","DECAY_DATE":null,"PERIOD":"95.593","OBJECT_TYPE":"PAYLOAD","OBJECT_ID":"2020-074BM","RA_OF_ASC_NODE":"43.1647","EPHEMERIS_TYPE":"0","INCLINATION":"53.0535","BSTAR":"0.00009224300000","TLE_LINE1":"1 46798U 20074BM  22231.78249261  .00001092  00000-0  92243-4 0  9992","RCS_SIZE":"LARGE","NORAD_CAT_ID":"46798","MEAN_ELEMENT_THEORY":"SGP4","TLE_LINE2":"2 46798  53.0535  43.1647 0001531  85.8626 274.2538 15.06390860100849","TIME_SYSTEM":"UTC","COUNTRY_CODE":"US","ECCENTRICITY":"0.00015310","SEMIMAJOR_AXIS":"6925.377","MEAN_MOTION_DDOT":"0.0000000000000","MEAN_MOTION_DOT":"0.00001092","CLASSIFICATION_TYPE":"U","CENTER_NAME":"EARTH","MEAN_MOTION":"15.06390860","ELEMENT_SET_NO":"999","REF_FRAME":"TEME","MEAN_ANOMALY":"274.2538","GP_ID":"210546935","LAUNCH_DATE":"2020-10-24","REV_AT_EPOCH":"10084","OBJECT_NAME":"STARLINK-1948","PERIAPSIS":"546.181","ARG_OF_PERICENTER":"85.8626","EPOCH":"2022-08-19T18:46:47.361504","SITE":"AFETR","FILE":"3540705"},{"TLE_LINE1":"1 47122U 20088A   22231.86958925  .00000053  00000-0  22468-4 0  9990","BSTAR":"0.00002246800000","NORAD_CAT_ID":"47122","RCS_SIZE":"LARGE","MEAN_ELEMENT_THEORY":"SGP4","TLE_LINE2":"2 47122  53.0547   7.7483 0001521 100.4759 259.6401 15.06394828 96228","TIME_SYSTEM":"UTC","COUNTRY_CODE":"US","ECCENTRICITY":"0.00015210","APOAPSIS":"548.283","DECAY_DATE":null,"PERIOD":"95.592","OBJECT_TYPE":"PAYLOAD","OBJECT_ID":"2020-088A","EPHEMERIS_TYPE":"0","RA_OF_ASC_NODE":"7.7483","INCLINATION":"53.0547","MEAN_MOTION":"15.06394828","ELEMENT_SET_NO":"999","REF_FRAME":"TEME","MEAN_ANOMALY":"259.6401","GP_ID":"210546220","LAUNCH_DATE":"2020-11-25","REV_AT_EPOCH":"9622","OBJECT_NAME":"STARLINK-1777","PERIAPSIS":"546.176","ARG_OF_PERICENTER":"100.4759","EPOCH":"2022-08-19T20:52:12.511200","FILE":"3540705","SITE":"AFETR","SEMIMAJOR_AXIS":"6925.364","MEAN_MOTION_DDOT":"0.0000000000000","MEAN_MOTION_DOT":"0.00000053","CLASSIFICATION_TYPE":"U","CENTER_NAME":"EARTH"}];
